DMSP 5D-3 F16 (USA 172) 
1 28054U 03048A   26156.21369398  .00000012  00000+0  29949-4 0  9994
2 28054  98.9894 179.9624 0007124 171.9414 267.3369 14.14481959167799
METEOSAT-9 (MSG-2)      
1 28912U 05049B   26155.75621891  .00000133  00000+0  00000+0 0  9993
2 28912   9.3326  54.2885 0002326  39.0161 117.8525  1.00267492  6873
DMSP 5D-3 F17 (USA 191) 
1 29522U 06050A   26156.21947582  .00000045  00000+0  45305-4 0  9998
2 29522  98.7378 163.0344 0011329  89.8828 270.3644 14.14991192 10732
FENGYUN 3A              
1 32958U 08026A   26156.06510944  .00000097  00000+0  66709-4 0  9999
2 32958  98.6880  97.1252 0009084 156.0332 204.1269 14.19568584933689
GOES 14                 
1 35491U 09033A   26155.87977802 -.00000228  00000+0  00000+0 0  9995
2 35491   1.6580  83.1912 0002128   0.1634 275.5400  1.00115416  6463
DMSP 5D-3 F18 (USA 210) 
1 35951U 09057A   26156.26076590  .00000269  00000+0  16257-3 0  9999
2 35951  98.9033 137.0562 0009923 287.5242  72.4846 14.14889922857902
EWS-G2 (GOES 15)        
1 36411U 10008A   26156.14803852  .00000031  00000+0  00000+0 0  9997
2 36411   1.2444  83.0567 0005520  35.6834 251.6956  1.00275922 59514
COMS 1                  
1 36744U 10032A   26152.73864208 -.00000334  00000+0  00000+0 0  9993
2 36744   4.7700  75.5552 0001064 351.7830 216.9341  1.00271905 50939
FENGYUN 3B              
1 37214U 10059A   26156.29600369 -.00000005  00000+0  20661-4 0  9991
2 37214  98.9618 202.2596 0021311 218.4962 275.9633 14.14838038805745
SUOMI NPP               
1 37849U 11061A   26156.21693062  .00000088  00000+0  62839-4 0  9996
2 37849  98.7951  97.1751 0002164  32.5180 327.6129 14.19514778756740
METEOSAT-10 (MSG-3)     
1 38552U 12035B   26156.06416943  .00000006  00000+0  00000+0 0  9991
2 38552   4.6426  61.0733 0001803 337.4560 238.2428  1.00275627 50731
METOP-B                 
1 38771U 12049A   26156.22308717  .00000112  00000+0  71112-4 0  9991
2 38771  98.6509 207.9604 0002880  46.7949 313.3468 14.21429383711565
INSAT-3D                
1 39216U 13038B   26156.23227824 -.00000327  00000+0  00000+0 0  9997
2 39216   1.8948  82.6914 0000875 348.6187  35.4773  1.00268853 46967
FENGYUN 3C              
1 39260U 13052A   26156.31200171  .00000094  00000+0  68877-4 0  9998
2 39260  98.4981 130.7326 0015746  59.8445 300.4287 14.15752205656880
METEOR-M 2              
1 40069U 14037A   26156.24967234  .00000254  00000+0  13549-3 0  9996
2 40069  98.5112 132.4115 0007052  72.8514 287.3435 14.21458751617627
HIMAWARI-8              
1 40267U 14060A   26156.23461825 -.00000263  00000+0  00000+0 0  9991
2 40267   0.0119  31.0566 0000940  60.6840  27.0683  1.00272219 42646
FENGYUN 2G              
1 40367U 14090A   26154.80052208 -.00000292  00000+0  00000+0 0  9999
2 40367   5.6052  72.9774 0003440 153.7233  53.2439  1.00279146 41866
METEOSAT-11 (MSG-4)     
1 40732U 15034A   26156.27990691  .00000075  00000+0  00000+0 0  9992
2 40732   3.1726  71.1753 0001651   4.0129 288.6651  1.00276593  7095
ELEKTRO-L 2             
1 41105U 15074A   26156.06124635 -.00000106  00000+0  00000+0 0  9991
2 41105   6.6638  70.6705 0001332 281.5102 268.8844  1.00272317 38380
SENTINEL-3A             
1 41335U 16011A   26156.29448792  .00000118  00000+0  66800-4 0  9993
2 41335  98.6251 223.8484 0001312 105.6361 254.4964 14.26736615536367
INSAT-3DR               
1 41752U 16054A   26156.07881616 -.00000065  00000+0  00000+0 0  9992
2 41752   0.0756  88.1143 0010286 187.0212  80.7580  1.00270740 35694
HIMAWARI-9              
1 41836U 16064A   26155.62350534 -.00000263  00000+0  00000+0 0  9996
2 41836   0.0411 168.7325 0001540 312.7214 136.8363  1.00270307 35088
GOES 16                 
1 41866U 16071A   26156.25733192 -.00000079  00000+0  00000+0 0  9997
2 41866   0.3096  85.6430 0000628 318.5167 197.5148  1.00271121 34982
FENGYUN 4A              
1 41882U 16077A   26156.30250600 -.00000344  00000+0  00000+0 0  9990
2 41882   2.2926  80.4133 0008178 151.6950 254.2688  1.00275965 34812
CYGFM05                 
1 41884U 16078A   26155.92834577  .00026590  00000+0  36756-3 0  9992
2 41884  34.9579 341.7330 0007465  25.4893 334.6198 15.56102645526842
CYGFM04                 
1 41885U 16078B   26156.12842470  .00033178  00000+0  38343-3 0  9991
2 41885  34.9333 308.6975 0006081  72.7608 287.3782 15.60808500527112
CYGFM02                 
1 41886U 16078C   26155.83257561  .00037081  00000+0  38298-3 0  9996
2 41886  34.9415 305.5592 0007124  72.1577 287.9926 15.63661383527231
CYGFM01                 
1 41887U 16078D   26155.92233525  .00027778  00000+0  37461-3 0  9994
2 41887  34.9409 342.9283 0007301  19.1712 340.9286 15.56759527526795
CYGFM08                 
1 41888U 16078E   26155.83853039  .00029160  00000+0  35656-3 0  9994
2 41888  34.9441 323.3834 0008176  51.8334 308.3127 15.59338137527045
CYGFM07                 
1 41890U 16078G   26156.11854666  .00030996  00000+0  37735-3 0  9995
2 41890  34.9456 309.8743 0006527  71.5707 288.5727 15.59459520527116
CYGFM03                 
1 41891U 16078H   26155.76940546  .00029685  00000+0  36188-3 0  9993
2 41891  34.9411 314.1371 0006098  54.5809 305.5485 15.59433427527031
